#cP2023  4 10  0  0  0.00000000      96 ORBIT IGS20 HLM  IGS
## 2257  86400.00000000   900.00000000 60044 0.0000000000000
+   32   G01G02G03G04G05G06G07G08G09G10G11G12G13G14G15G16G17
+        G18G19G20G21G22G23G24G25G26G27G28G29G30G31G32  0  0
+          0  0  0  0  0  0  0  0  0  0  0  0  0  0  0  0  0
+          0  0  0  0  0  0  0  0  0  0  0  0  0  0  0  0  0
+          0  0  0  0  0  0  0  0  0  0  0  0  0  0  0  0  0
++         2  2  2  2  2  3  2  2  2  2  2  2  2  2  2  2  2
++         3  2  2  2  3  2  2  2  2  2  3  2  2  2  2  0  0
++         0  0  0  0  0  0  0  0  0  0  0  0  0  0  0  0  0
++         0  0  0  0  0  0  0  0  0  0  0  0  0  0  0  0  0
++         0  0  0  0  0  0  0  0  0  0  0  0  0  0  0  0  0
%c G  cc GPS ccc cccc cccc cccc cccc ccccc ccccc ccccc ccccc
%c cc cc ccc ccc cccc cccc cccc cccc ccccc ccccc ccccc ccccc
%f  1.2500000  1.025000000  0.00000000000  0.000000000000000
%f  0.0000000  0.000000000  0.00000000000  0.000000000000000
%i    0    0    0    0      0      0      0      0         0
%i    0    0    0    0      0      0      0      0         0
/* RAPID ORBIT COMBINATION FROM WEIGHTED AVERAGE OF:        
/* cod emr esa gfz grg jpl ngs sio usn whu                  
/* REFERENCED TO IGS TIME (IGST) AND TO WEIGHTED MEAN POLE: 
/* PCV:IGS20_2233 OL/AL:FES2014b NONE     Y  ORB:CMB CLK:CMB
*  2023  4 10 18  0  0.00000000
PG01  13218.840341  -9623.021558  20515.608591    194.479656  7  5  6  99       
PG02  -9194.679803  18351.398975 -16532.778866   -607.299729  4  6  4 125       
PG03  23071.184416 -12791.163348   2345.270345   -332.196972  5  6  6  79       
PG04  18690.819942  -4176.000796 -18438.666724     13.637429  4  5  5  83       
PG05 -20972.385328    747.377839 -16521.176887   -122.891838  3  6  5 116       
PG06  -5427.880056 -24979.860562  -6954.488257    586.326009  7 13  7  84       
PG07   7251.581155 -22370.103073 -11408.885738    204.314976  7  8  6  78       
PG08  24665.798872   5022.764051   9007.514909   -117.112102  4  4  4  87       
PG09   8813.475377 -12718.895666 -21659.783824   -182.791800  4  5  5 106       
PG10  -1772.776902  17273.006114  20183.024657    -32.267139  5  6  4  99       
PG11 -12386.048398 -15020.809725 -18074.735330   -158.136060  5  7  6 112       
PG12 -24216.976762   9799.656347   4227.153609   -362.299736  2  6  7 104       
PG13 -22873.006399 -13150.354069   3714.875796    503.774786  5 10 10 112       
PG14   5188.224126 -18388.171493  18399.302568     21.125740  5  9  7  98       
PG15 -24976.654581  -1986.492502   8748.226085     29.431651  3  6  6  63       
PG16  19526.930210   3969.880887 -18084.630866   -509.773340  7  3  6 122       
PG17  -5406.942165 -18248.974895  18911.509263    709.929009  4  8  3  83       
PG18  -5279.788226  24474.560692  -8637.957838   -218.328886  6  9  7 117       
PG19 -14552.540080 -19069.607575  11480.407944    301.868822  3  9  4  97       
PG20 -14517.743461  -7203.453245 -20977.033217    439.803465  4  7  4 116       
PG21  15586.440971    330.336986  22109.578848    154.257114  4  6  2 132       
PG22  16814.631355  18533.930468   9587.068655    461.709923  8  7  5  34       
PG23 -13384.552392  19239.197670  12358.196490     15.959850  5  9  6 100       
PG24 -14924.965680   5240.997434  20945.111532   -146.597530  5  9  6  86       
PG25 -19369.656628  17226.113977  -5402.297329    434.585961  4  8  7 124       
PG26   9283.857884  12833.601283 -21433.842883    241.809807  8  6  3 115       
PG27  23258.118426  13232.255382  -1542.777313     61.870841  5  4  7 106       
PG28   5483.463453  25513.370129  -4988.065905     62.563273  5  8  6  92       
PG29 -13171.757639   8805.393716 -21381.675145   -594.927788  3  7  5 135       
PG30   -540.039609 -26402.455112   -462.985553   -523.007651  8 10  3  96       
PG31   9075.423165  21633.495470 -12197.675283   -213.664588  4  5  7 103       
PG32   9404.718931  18272.534367  17111.904691   -447.926251  2  2  3  72       
*  2023  4 10 18 15  0.00000000
PG01  13433.300038  -7164.924517  21381.975908    194.476558  6  5  5 105       
PG02  -9654.318032  16331.142481 -18226.391396   -607.296332  4  6  4 119       
PG03  22822.533546 -12363.605770   5199.333305   -332.189335  5  6  5  86       
PG04  20407.249913  -3116.643768 -16762.843036     13.645692  4  5  5  68       
PG05 -19492.495064   -537.181489 -18257.374179   -122.893402  3  6  5 108       
PG06  -5295.041380 -25631.712644  -4130.125833    586.327308  7 13  7  68       
PG07   7634.285910 -20872.273840 -13722.754581    204.307448  8  7  7  78       
PG08  25378.792781   5579.704887   6360.596994   -117.113753  5  4  5  90       
PG09  11020.007381 -11675.327551 -21235.542913   -182.784674  5  6  5  91       
PG10  -3649.016691  18431.415146  18822.694100    -32.268419  5  6  4  98       
PG11 -12287.313350 -16990.695220 -16315.958628   -158.147323  5  7  6 108       
PG12 -23756.471736   9247.644780   7000.993850   -362.303759  3  7  7  86       
PG13 -22987.115506 -13484.371008    869.440816    503.779752  6 10 10 116       
PG14   6983.588715 -19326.323471  16758.163321     21.135974  5  9  6 110       
PG15 -25744.869908  -2551.494376   6143.479516     29.434767  2  5  6  81       
PG16  17758.679176   5071.717621 -19555.806599   -509.771120  7  2  6 120       
PG17  -3475.993142 -17279.130527  20267.573701    709.930324  4  8  3  83       
PG18  -5548.799478  23349.452797 -11214.309734   -218.343948  6 10  7  97       
PG19 -13216.363871 -18436.990441  13817.205384    301.873042  2  9  4  98       
PG20 -12798.104162  -8936.690261 -21441.892106    439.802145  5  6  5 117       
PG21  15970.685362   2680.225652  21735.542769    154.257306  4  6  3 136       
PG22  15702.224849  18109.648886  12064.764364    461.716285  8  8  5  10       
PG23 -14532.491809  19826.746128   9869.707617     15.962118  5  9  6  97       
PG24 -15366.851048   2786.370360  21130.328565   -146.610798  5  9  5  88       
PG25 -19885.261806  17234.121136  -2594.368335    434.588539  4  8  7 115       
PG26   7352.276974  14304.278456 -21219.764012    241.809713  8  6  2 107       
PG27  22895.667258  13280.427753  -4362.350334     61.863472  5  4  7 106       
PG28   5281.753481  25944.761908  -2169.155490     62.569360  6  9  6  90       
PG29 -15201.778379   7562.646290 -20497.135268   -594.929032  3  7  5 125       
PG30   -179.629177 -26198.374934  -3272.945113   -523.006040  7 10  3 102       
PG31   8881.611005  22891.371076  -9724.030558   -213.665287  4  6  7 100       
PG32   7526.106135  17537.790216  18731.805764   -447.935426  2  2  3  95       
*  2023  4 10 18 30  0.00000000
PG01  13792.818323  -4647.483073  21867.210442    194.473492  6  5  5  96       
PG02 -10259.681651  14161.666669 -19597.265482   -607.293122  4  5  4 123       
PG03  22344.820009 -11726.315708   7963.003142   -332.181661  6  6  5  98       
PG04  21988.783218  -2233.940317 -14799.595168     13.653900  4  5  5  59       
PG05 -17947.807808  -2013.739397 -19684.740701   -122.894265  4  6  5 110       
PG06  -5157.932310 -25966.703559  -1234.160916    586.328643  8 13  7  92       
PG07   8123.598243 -19143.464613 -15788.337540    204.299984  8  7  7  57       
PG08  25836.498899   5989.613827   3606.524897   -117.115550  5  4  6  94       
PG09  13213.399622 -10771.407468 -20448.415076   -182.777582  5  6  5  69       
PG10  -5326.266806  19586.367376  17139.766848    -32.270043  6  6  5  99       
PG11 -12274.917791 -18748.499193 -14276.656282   -158.158540  6  7  6  91       
PG12 -23068.565019   8498.364694   9652.620168   -362.307964  4  8  7 103       
PG13 -22841.355668 -13648.822658  -1990.803106    503.784551  6 10  9 119       
PG14   8566.687062 -20235.024154  14827.213467     21.146178  5  9  6 103       
PG15 -26248.326527  -3000.109344   3433.307854     29.438157  2  5  7 101       
PG16  15928.528243   6347.731228 -20702.964819   -509.768598  8  4  6 122       
PG17  -1377.944413 -16360.543143  21286.389818    709.932209  4  7  3  88       
PG18  -5910.538320  21960.728584 -13596.141853   -218.359028  5 10  8 101       
PG19 -11623.209087 -17758.576408  15916.222530    301.877587  1  9  3  99       
PG20 -11146.832564 -10775.306730 -21536.213701    439.800140  5  5  5 115       
PG21  16467.711445   4940.318451  21009.542234    154.257057  4  6  4 133       
PG22  14335.137189  17623.634352  14341.128435    461.722420  8  9  5  34       
PG23 -15421.525277  20289.090662   7210.000066     15.964394  6  9  7  97       
PG24 -15922.251265    359.662701  20940.043644   -146.624063  5  9  5  80       
PG25 -20149.591194  17066.558017    258.779356    434.591049  4  8  7 122       
PG26   5524.142206  15838.968237 -20643.258591    241.809640  9  7  3 109       
PG27  22248.570296  13229.947217  -7109.057283     61.856177  5  3  7 115       
PG28   5048.355996  26069.539668    687.063336     62.575479  6 10  6 109       
PG29 -17189.322060   6487.011056 -19262.112099   -594.930665  2  6  5 123       
PG30    229.454826 -25697.994386  -6025.551207   -523.004514  7 10  3 100       
PG31   8717.337107  23870.002953  -7080.178986   -213.665740  4  6  6 103       
PG32   5458.782875  16841.761469  20035.856976   -447.944593  3  3  2  85       
EOF
